CRE (WAAS/PRN 138)      
1 28868U 05036A   25043.59199194 -.00000084  00000+0  00000+0 0  9998
2 28868   3.0540  82.7117 0002268 268.5382 257.4284  1.00271842 41545
IOR-W (EGNOS/PRN 126)   
1 28899U 05044A   25043.46864083 -.00000269  00000+0  00000+0 0  9998
2 28899   4.4669  43.2517 0002468 288.1965 123.4974  1.00271675 70611
GSAT-8 (GAGAN/PRN 127)  
1 37605U 11022A   25043.55280888  .00000075  00000+0  00000+0 0  9995
2 37605   0.8622  88.2126 0007972 201.5919 107.0987  1.00271248 48302
LUCH 5A (SDCM/PRN 140)  
1 37951U 11074B   25043.58144755 -.00000058  00000+0  00000+0 0  9993
2 37951   7.5030  81.1880 0003157 224.8105 213.1590  1.00269401 48147
SES-5 (EGNOS/PRN 136)   
1 38652U 12036A   25043.45878343  .00000024  00000+0  00000+0 0  9996
2 38652   0.0208 320.8574 0001783 356.0046 356.0268  1.00269197 39566
GSAT-10 (GAGAN/PRN 128) 
1 38779U 12051B   25043.63410873 -.00000174  00000+0  00000+0 0  9990
2 38779   0.0579 275.0602 0002807 165.5657  13.5825  1.00270647 45180
LUCH 5B (SDCM/PRN 125)  
1 38977U 12061A   25043.32424071 -.00000145  00000+0  00000+0 0  9990
2 38977   9.4170  54.5543 0003839 207.2103 341.2011  1.00271490 44690
ASTRA 5B (EGNOS/PRN 123)
1 39617U 14011B   25043.33214682  .00000127  00000+0  00000+0 0  9994
2 39617   0.0554 315.7730 0004217 347.5977 342.2923  1.00269830 39752
LUCH 5V (SDCM/PRN 141)  
1 39727U 14023A   25043.60362763 -.00000278  00000+0  00000+0 0  9991
2 39727   3.9069  74.2675 0003409 253.3786 127.2304  1.00274453 39454
GSAT-15 (GAGAN/PRN 139) 
1 41028U 15065A   25043.56036747 -.00000267  00000+0  00000+0 0  9998
2 41028   0.0613 273.7723 0001500  39.1416 125.1298  1.00271753 33884
E 117 W B (WAAS/PRN 131)
1 41589U 16038B   25043.59008058 -.00000021  00000+0  00000+0 0  9996
2 41589   0.0145 250.2678 0000367 197.5128 150.5056  1.00273292 31752
SES-15 (WAAS/PRN 133)   
1 42709U 17026A   25043.58764792  .00000050  00000+0  00000+0 0  9993
2 42709   0.0262  59.4737 0000363 167.7105 358.0498  1.00280817  2532
QZS-2 (QZSS/PRN 194)    
1 42738U 17028A   25043.42544220 -.00000143  00000+0  00000+0 0  9996
2 42738  40.1895 250.2843 0748357 270.0922 277.2865  1.00268579  2718
QZS-3 (QZSS/PRN 199)    
1 42917U 17048A   25043.56850436 -.00000357  00000+0  00000+0 0  9998
2 42917   0.0720 218.5285 0001874  96.5094 159.4822  1.00273108 27347
QZS-4 (QZSS/PRN 195)    
1 42965U 17062A   25043.38016241 -.00000348  00000+0  00000+0 0  9995
2 42965  40.3950 349.7321 0749892 269.2956 159.6645  1.00287536 26901
BEIDOU-3 G1 (PRN 130)   
1 43683U 18085A   25043.55719388 -.00000288  00000+0  00000+0 0  9993
2 43683   2.7913 101.5003 0001381 357.6059  24.3673  1.00269918 23158
BEIDOU-3 G2 (PRN 144)   
1 45344U 20017A   25043.55776105 -.00000150  00000+0  00000+0 0  9995
2 45344   2.6620  37.5148 0003307 284.9262 101.2228  1.00272394 18353
BEIDOU-3 G3 (PRN 143)   
1 45807U 20040A   25043.56375580 -.00000363  00000+0  00000+0 0  9994
2 45807   1.2709  60.3815 0003467 309.3534  86.5784  1.00273158 17165
GALAXY 30 (WAAS/PRN 135)
1 46114U 20056C   25043.58842985  .00000028  00000+0  00000+0 0  9990
2 46114   0.0212 121.7197 0001998 204.5636 263.4353  1.00269343 16386
QZS-1R (QZSS/PRN 196)   
1 49336U 21096A   25027.49586074 -.00000266  00000+0  00000+0 0  9995
2 49336  36.4090  87.1392 0760333 272.1965  78.1859  1.00245711 11936
